[{"OBJECT_NAME":"STARLINK-1871","OBJECT_ID":"2020-088AM","EPOCH":"2026-03-09T21:52:37.049088","MEAN_MOTION":15.30175078,"ECCENTRICITY":0.00012586,"INCLINATION":53.1581,"RA_OF_ASC_NODE":295.3388,"ARG_OF_PERICENTER":90.0554,"MEAN_ANOMALY":270.0591,"EPHEMERIS_TYPE":0,"CLASSIFICATION_TYPE":"U","NORAD_CAT_ID":47157,"ELEMENT_SET_NO":999,"REV_AT_EPOCH":29195,"BSTAR":0.00029095563,"MEAN_MOTION_DOT":8.261e-5,"MEAN_MOTION_DDOT":0},{"OBJECT_NAME":"GEOSCAN 5 (RS92S5)","OBJECT_ID":"2025-155R","EPOCH":"2026-03-09T22:01:07.273920","MEAN_MOTION":15.30265233,"ECCENTRICITY":0.00070849,"INCLINATION":97.4462,"RA_OF_ASC_NODE":37.7456,"ARG_OF_PERICENTER":154.5846,"MEAN_ANOMALY":205.5745,"EPHEMERIS_TYPE":0,"CLASSIFICATION_TYPE":"U","NORAD_CAT_ID":64891,"ELEMENT_SET_NO":999,"REV_AT_EPOCH":6562,"BSTAR":0.00068639307,"MEAN_MOTION_DOT":0.00020065,"MEAN_MOTION_DDOT":0}]
